STARLINK-5518           
1 56469U 23064X   26068.55136380 -.00000730  00000+0 -53396-4 0  9999
2 56469  69.9999 125.0083 0003190 268.3098  91.7695 14.98327015155717
LEMUR-2-DELOITTE-1      
1 63259U 25052BB  26068.93956839  .00005004  00000+0  44206-3 0  9990
2 63259  97.7035 323.2090 0003011  78.3841 281.7719 14.96797120 53844
